OBJECT_NAME,OBJECT_ID,EPOCH,MEAN_MOTION,ECCENTRICITY,INCLINATION,RA_OF_ASC_NODE,ARG_OF_PERICENTER,MEAN_ANOMALY,EPHEMERIS_TYPE,CLASSIFICATION_TYPE,NORAD_CAT_ID,ELEMENT_SET_NO,REV_AT_EPOCH,BSTAR,MEAN_MOTION_DOT,MEAN_MOTION_DDOT
IONOSFERA-M 2,2024-199B,2026-07-11T21:53:50.522784,14.22762067,.0000385,98.7139,65.7303,112.9228,247.1990,0,U,61736,999,13434,.32652229E-4,.29E-6,0
PRSC-EO1,2025-012A,2026-07-11T07:44:52.484352,15.17752178,.00066307,97.4221,264.3100,161.2543,198.8936,0,U,62725,999,8185,.20455326E-3,.4065E-4,0
BIOMASS,2025-090A,2026-07-11T20:30:33.223680,14.67537912,.00014882,98.0746,19.8106,92.0380,268.0995,0,U,63772,999,6430,.10835531E-3,.566E-5,0
GOSAT-GW (IBUKI GW),2025-141A,2026-07-11T22:33:37.704672,14.67554645,.00014335,98.0565,129.8549,85.6331,274.5038,0,U,64694,999,5547,.51218944E-4,.243E-5,0
IONOSFERA-M 3,2025-155A,2026-07-11T22:51:13.003776,14.21490498,.00021922,98.6038,154.2356,117.4899,242.6501,0,U,64876,999,4992,.22150388E-4,.6E-7,0
IONOSFERA-M 4,2025-155B,2026-07-11T23:41:19.643424,14.21492905,.00017647,98.6037,154.1867,102.7969,257.3406,0,U,64877,999,4992,.25843323E-4,.14E-6,0
MICROCARB,2025-156A,2026-07-11T19:32:12.568704,14.72882876,.00173514,98.0075,269.5636,181.4107,178.7055,0,U,64899,999,5159,.50798874E-4,.276E-5,0
CO3D 3,2025-156B,2026-07-11T20:54:28.473696,15.20220495,.00018306,97.4337,271.2091,100.3943,259.7499,0,U,64900,999,5328,.11557113E-3,.2436E-4,0
CO3D 4,2025-156C,2026-07-11T20:54:43.018272,15.20191120,.00013726,97.4336,271.2095,159.6672,200.4618,0,U,64901,999,5328,.38214737E-4,.76E-5,0
CO3D 2,2025-156D,2026-07-11T21:41:29.127840,15.20204989,.00013056,97.4336,271.1401,88.8983,271.2401,0,U,64902,999,5328,.12159579E-3,.2566E-4,0
CO3D 1,2025-156E,2026-07-11T21:41:42.068832,15.20208580,.00013087,97.4337,271.1403,101.3813,258.7569,0,U,64903,999,5328,.1230286E-3,.2597E-4,0
PRSC-S1,2025-164A,2026-07-11T22:12:03.144096,15.06619033,.00062082,41.1292,148.4677,176.6251,183.4605,0,U,65055,999,5216,.15986985E-3,.2234E-4,0
SENTINEL-6B,2025-264A,2026-07-11T20:03:41.990688,12.80930071,.00078732,66.0413,83.9841,268.7579,91.2534,0,U,66514,999,3032,-.41261051E-4,-.71E-6,0
CAS500-3,2025-274F,2026-07-11T18:05:58.458048,14.88378865,.00064617,97.7438,120.2465,47.2907,312.8853,0,U,66655,999,3380,.78679936E-4,.675E-5,0
CSG-3,2026-001A,2026-07-11T23:24:35.570880,14.82150701,.00015004,97.8893,16.2188,93.2995,266.8389,0,U,67304,999,2813,.26380391E-4,.158E-5,0
PRSC-E03,2026-092A,2026-07-11T18:36:29.712960,15.06799129,.0004622,38.0020,304.6768,229.7942,130.2416,0,U,68835,999,1166,.10417749E-3,.1471E-4,0
CAS500-2,2026-100AK,2026-07-11T16:41:29.872896,15.20876867,.00080047,97.3877,90.0874,306.8039,53.2461,0,U,69013,999,1053,.15743373E-3,.3412E-4,0
